[{"OBJECT_NAME":"STARLINK-11635 [DTC]","OBJECT_ID":"2025-048L","EPOCH":"2026-01-23T22:08:35.760768","MEAN_MOTION":15.7092348,"ECCENTRICITY":0.00023392,"INCLINATION":42.9994,"RA_OF_ASC_NODE":229.4507,"ARG_OF_PERICENTER":265.6276,"MEAN_ANOMALY":94.4324,"EPHEMERIS_TYPE":0,"CLASSIFICATION_TYPE":"U","NORAD_CAT_ID":63193,"ELEMENT_SET_NO":999,"REV_AT_EPOCH":5148,"BSTAR":0.0015196637,"MEAN_MOTION_DOT":0.00200016,"MEAN_MOTION_DDOT":0},{"OBJECT_NAME":"STARLINK-11636 [DTC]","OBJECT_ID":"2025-048M","EPOCH":"2026-01-23T21:22:56.395200","MEAN_MOTION":15.70955199,"ECCENTRICITY":9.326e-5,"INCLINATION":42.9998,"RA_OF_ASC_NODE":230.0925,"ARG_OF_PERICENTER":297.4692,"MEAN_ANOMALY":62.6081,"EPHEMERIS_TYPE":0,"CLASSIFICATION_TYPE":"U","NORAD_CAT_ID":63194,"ELEMENT_SET_NO":999,"REV_AT_EPOCH":5147,"BSTAR":0.0020003529,"MEAN_MOTION_DOT":0.00265892,"MEAN_MOTION_DDOT":0},{"OBJECT_NAME":"STARLINK-11631 [DTC]","OBJECT_ID":"2025-048N","EPOCH":"2026-01-23T20:21:55.850112","MEAN_MOTION":15.70944921,"ECCENTRICITY":0.00018591,"INCLINATION":42.9993,"RA_OF_ASC_NODE":230.6434,"ARG_OF_PERICENTER":157.3814,"MEAN_ANOMALY":202.7136,"EPHEMERIS_TYPE":0,"CLASSIFICATION_TYPE":"U","NORAD_CAT_ID":63195,"ELEMENT_SET_NO":999,"REV_AT_EPOCH":5146,"BSTAR":0.0022129929,"MEAN_MOTION_DOT":0.00295122,"MEAN_MOTION_DDOT":0},{"OBJECT_NAME":"STARLINK-32946","OBJECT_ID":"2025-048P","EPOCH":"2026-01-23T21:10:00.271776","MEAN_MOTION":15.2762333,"ECCENTRICITY":8.612e-5,"INCLINATION":43.0001,"RA_OF_ASC_NODE":342.3786,"ARG_OF_PERICENTER":263.2654,"MEAN_ANOMALY":96.81,"EPHEMERIS_TYPE":0,"CLASSIFICATION_TYPE":"U","NORAD_CAT_ID":63196,"ELEMENT_SET_NO":999,"REV_AT_EPOCH":5019,"BSTAR":0.0020473809,"MEAN_MOTION_DOT":0.00056585,"MEAN_MOTION_DDOT":0},{"OBJECT_NAME":"STARLINK-32960","OBJECT_ID":"2025-048Q","EPOCH":"2026-01-23T22:07:50.050848","MEAN_MOTION":15.27642205,"ECCENTRICITY":0.00012242,"INCLINATION":43.0018,"RA_OF_ASC_NODE":338.3069,"ARG_OF_PERICENTER":251.6929,"MEAN_ANOMALY":108.3789,"EPHEMERIS_TYPE":0,"CLASSIFICATION_TYPE":"U","NORAD_CAT_ID":63197,"ELEMENT_SET_NO":999,"REV_AT_EPOCH":5024,"BSTAR":0.00156278,"MEAN_MOTION_DOT":0.00043076,"MEAN_MOTION_DDOT":0},{"OBJECT_NAME":"STARLINK-32904","OBJECT_ID":"2025-048R","EPOCH":"2026-01-23T21:12:19.477728","MEAN_MOTION":15.27612046,"ECCENTRICITY":0.00010433,"INCLINATION":42.9999,"RA_OF_ASC_NODE":338.0169,"ARG_OF_PERICENTER":275.9806,"MEAN_ANOMALY":84.0927,"EPHEMERIS_TYPE":0,"CLASSIFICATION_TYPE":"U","NORAD_CAT_ID":63198,"ELEMENT_SET_NO":999,"REV_AT_EPOCH":5024,"BSTAR":0.0014849213,"MEAN_MOTION_DOT":0.00040866,"MEAN_MOTION_DDOT":0},{"OBJECT_NAME":"STARLINK-32931","OBJECT_ID":"2025-048S","EPOCH":"2026-01-23T21:47:28.416192","MEAN_MOTION":15.27614423,"ECCENTRICITY":0.00012833,"INCLINATION":43.0025,"RA_OF_ASC_NODE":338.1996,"ARG_OF_PERICENTER":309.6162,"MEAN_ANOMALY":50.4577,"EPHEMERIS_TYPE":0,"CLASSIFICATION_TYPE":"U","NORAD_CAT_ID":63199,"ELEMENT_SET_NO":999,"REV_AT_EPOCH":5024,"BSTAR":0.00097307809,"MEAN_MOTION_DOT":0.0002664,"MEAN_MOTION_DDOT":0},{"OBJECT_NAME":"STARLINK-32934","OBJECT_ID":"2025-048T","EPOCH":"2026-01-23T21:21:34.575264","MEAN_MOTION":15.27603818,"ECCENTRICITY":0.00031595,"INCLINATION":43.006,"RA_OF_ASC_NODE":338.0646,"ARG_OF_PERICENTER":274.8295,"MEAN_ANOMALY":85.2196,"EPHEMERIS_TYPE":0,"CLASSIFICATION_TYPE":"U","NORAD_CAT_ID":63200,"ELEMENT_SET_NO":999,"REV_AT_EPOCH":5024,"BSTAR":0.0016005722,"MEAN_MOTION_DOT":0.00044081,"MEAN_MOTION_DDOT":0},{"OBJECT_NAME":"STARLINK-32938","OBJECT_ID":"2025-048U","EPOCH":"2026-01-23T04:37:19.672320","MEAN_MOTION":15.27620283,"ECCENTRICITY":0.0002054,"INCLINATION":43.0029,"RA_OF_ASC_NODE":342.2899,"ARG_OF_PERICENTER":281.2925,"MEAN_ANOMALY":78.7696,"EPHEMERIS_TYPE":0,"CLASSIFICATION_TYPE":"U","NORAD_CAT_ID":63201,"ELEMENT_SET_NO":999,"REV_AT_EPOCH":5013,"BSTAR":0.0017425259,"MEAN_MOTION_DOT":0.00048062,"MEAN_MOTION_DDOT":0},{"OBJECT_NAME":"STARLINK-32935","OBJECT_ID":"2025-048V","EPOCH":"2026-01-23T22:24:29.411136","MEAN_MOTION":15.27618776,"ECCENTRICITY":0.00018577,"INCLINATION":43.0042,"RA_OF_ASC_NODE":338.3977,"ARG_OF_PERICENTER":274.569,"MEAN_ANOMALY":85.4949,"EPHEMERIS_TYPE":0,"CLASSIFICATION_TYPE":"U","NORAD_CAT_ID":63202,"ELEMENT_SET_NO":999,"REV_AT_EPOCH":5024,"BSTAR":0.0015449317,"MEAN_MOTION_DOT":0.00042548,"MEAN_MOTION_DDOT":0},{"OBJECT_NAME":"STARLINK-32930","OBJECT_ID":"2025-048W","EPOCH":"2026-01-23T22:18:55.973664","MEAN_MOTION":15.27565446,"ECCENTRICITY":0.00014301,"INCLINATION":43.0031,"RA_OF_ASC_NODE":338.3599,"ARG_OF_PERICENTER":250.7333,"MEAN_ANOMALY":109.3364,"EPHEMERIS_TYPE":0,"CLASSIFICATION_TYPE":"U","NORAD_CAT_ID":63203,"ELEMENT_SET_NO":999,"REV_AT_EPOCH":5024,"BSTAR":-5.510598e-6,"MEAN_MOTION_DOT":-4.14e-6,"MEAN_MOTION_DDOT":0},{"OBJECT_NAME":"STARLINK-11654 [DTC]","OBJECT_ID":"2025-053A","EPOCH":"2026-01-23T09:05:25.021248","MEAN_MOTION":15.70914607,"ECCENTRICITY":0.00011362,"INCLINATION":42.9997,"RA_OF_ASC_NODE":25.3133,"ARG_OF_PERICENTER":276.4903,"MEAN_ANOMALY":83.5836,"EPHEMERIS_TYPE":0,"CLASSIFICATION_TYPE":"U","NORAD_CAT_ID":63265,"ELEMENT_SET_NO":999,"REV_AT_EPOCH":5054,"BSTAR":0.0014182838,"MEAN_MOTION_DOT":0.00186254,"MEAN_MOTION_DDOT":0},{"OBJECT_NAME":"STARLINK-11659 [DTC]","OBJECT_ID":"2025-053B","EPOCH":"2026-01-23T16:35:34.775808","MEAN_MOTION":15.70930418,"ECCENTRICITY":0.00019812,"INCLINATION":42.9995,"RA_OF_ASC_NODE":23.3533,"ARG_OF_PERICENTER":359.0956,"MEAN_ANOMALY":0.9908,"EPHEMERIS_TYPE":0,"CLASSIFICATION_TYPE":"U","NORAD_CAT_ID":63266,"ELEMENT_SET_NO":999,"REV_AT_EPOCH":5059,"BSTAR":0.0022328644,"MEAN_MOTION_DOT":0.00297688,"MEAN_MOTION_DDOT":0},{"OBJECT_NAME":"STARLINK-11653 [DTC]","OBJECT_ID":"2025-053C","EPOCH":"2026-01-23T17:07:28.261056","MEAN_MOTION":15.70944932,"ECCENTRICITY":9.591e-5,"INCLINATION":42.9997,"RA_OF_ASC_NODE":23.5315,"ARG_OF_PERICENTER":5.9356,"MEAN_ANOMALY":354.1523,"EPHEMERIS_TYPE":0,"CLASSIFICATION_TYPE":"U","NORAD_CAT_ID":63267,"ELEMENT_SET_NO":999,"REV_AT_EPOCH":5059,"BSTAR":0.0024181075,"MEAN_MOTION_DOT":0.00323649,"MEAN_MOTION_DDOT":0},{"OBJECT_NAME":"STARLINK-11641 [DTC]","OBJECT_ID":"2025-053D","EPOCH":"2026-01-23T08:34:50.123712","MEAN_MOTION":15.70946098,"ECCENTRICITY":0.00024023,"INCLINATION":42.9993,"RA_OF_ASC_NODE":25.141,"ARG_OF_PERICENTER":282.9559,"MEAN_ANOMALY":77.1041,"EPHEMERIS_TYPE":0,"CLASSIFICATION_TYPE":"U","NORAD_CAT_ID":63268,"ELEMENT_SET_NO":999,"REV_AT_EPOCH":5054,"BSTAR":0.0020915571,"MEAN_MOTION_DOT":0.00278353,"MEAN_MOTION_DDOT":0},{"OBJECT_NAME":"STARLINK-11638 [DTC]","OBJECT_ID":"2025-053E","EPOCH":"2026-01-23T08:42:29.068416","MEAN_MOTION":15.70943147,"ECCENTRICITY":0.00018589,"INCLINATION":42.9992,"RA_OF_ASC_NODE":25.1827,"ARG_OF_PERICENTER":266.365,"MEAN_ANOMALY":93.7006,"EPHEMERIS_TYPE":0,"CLASSIFICATION_TYPE":"U","NORAD_CAT_ID":63269,"ELEMENT_SET_NO":999,"REV_AT_EPOCH":5054,"BSTAR":0.0024521541,"MEAN_MOTION_DOT":0.00328368,"MEAN_MOTION_DDOT":0}]
