STARLINK-11635 [DTC]    
1 63193U 25048L   26023.92263612  .00200016  00000+0  15197-2 0  9998
2 63193  42.9994 229.4507 0002339 265.6276  94.4324 15.70923480 51484
STARLINK-11636 [DTC]    
1 63194U 25048M   26023.89093050  .00265892  00000+0  20004-2 0  9998
2 63194  42.9998 230.0925 0000932 297.4692  62.6081 15.70955199 51471
STARLINK-11631 [DTC]    
1 63195U 25048N   26023.84856308  .00295122  00000+0  22130-2 0  9998
2 63195  42.9993 230.6434 0001859 157.3814 202.7136 15.70944921 51465
STARLINK-32946          
1 63196U 25048P   26023.88194759  .00056585  00000+0  20474-2 0  9995
2 63196  43.0001 342.3786 0000861 263.2654  96.8100 15.27623330 50192
STARLINK-32960          
1 63197U 25048Q   26023.92210707  .00043076  00000+0  15628-2 0  9999
2 63197  43.0018 338.3069 0001224 251.6929 108.3789 15.27642205 50240
STARLINK-32904          
1 63198U 25048R   26023.88355877  .00040866  00000+0  14849-2 0  9991
2 63198  42.9999 338.0169 0001043 275.9806  84.0927 15.27612046 50241
STARLINK-32931          
1 63199U 25048S   26023.90796778  .00026640  00000+0  97308-3 0  9990
2 63199  43.0025 338.1996 0001283 309.6162  50.4577 15.27614423 50248
STARLINK-32934          
1 63200U 25048T   26023.88998351  .00044081  00000+0  16006-2 0  9995
2 63200  43.0060 338.0646 0003159 274.8295  85.2196 15.27603818 50244
STARLINK-32938          
1 63201U 25048U   26023.19258880  .00048062  00000+0  17425-2 0  9995
2 63201  43.0029 342.2899 0002054 281.2925  78.7696 15.27620283 50137
STARLINK-32935          
1 63202U 25048V   26023.93367374  .00042548  00000+0  15449-2 0  9994
2 63202  43.0042 338.3977 0001857 274.5690  85.4949 15.27618776 50242
STARLINK-32930          
1 63203U 25048W   26023.92981451 -.00000414  00000+0 -55106-5 0  9997
2 63203  43.0031 338.3599 0001430 250.7333 109.3364 15.27565446 50240
STARLINK-11654 [DTC]    
1 63265U 25053A   26023.37876182  .00186254  00000+0  14183-2 0  9996
2 63265  42.9997  25.3133 0001136 276.4903  83.5836 15.70914607 50540
STARLINK-11659 [DTC]    
1 63266U 25053B   26023.69137472  .00297688  00000+0  22329-2 0  9999
2 63266  42.9995  23.3533 0001981 359.0956   0.9908 15.70930418 50591
STARLINK-11653 [DTC]    
1 63267U 25053C   26023.71352154  .00323649  00000+0  24181-2 0  9994
2 63267  42.9997  23.5315 0000959   5.9356 354.1523 15.70944932 50592
STARLINK-11641 [DTC]    
1 63268U 25053D   26023.35752458  .00278353  00000+0  20916-2 0  9999
2 63268  42.9993  25.1410 0002402 282.9559  77.1041 15.70946098 50547
STARLINK-11638 [DTC]    
1 63269U 25053E   26023.36283644  .00328368  00000+0  24522-2 0  9996
2 63269  42.9992  25.1827 0001858 266.3650  93.7006 15.70943147 50548
